     3.03           N: GNSS NAV DATA    M: MIXED            RINEX VERSION / TYPE
GR30 V4.20          ASI-egeos           20210718 235942 UTC PGM / RUN BY / DATE
GAL    4.7000D+01  1.6016D-01  1.0315D-02                   IONOSPHERIC CORR
GPSA   4.6566D-09  1.4901D-08 -5.9605D-08 -1.1921D-07       IONOSPHERIC CORR
GPSB   7.9872D+04  8.1920D+04 -6.5536D+04 -4.5875D+05       IONOSPHERIC CORR
BDSA   6.5193D-09  2.2352D-08 -2.3842D-07  3.5763D-07 W 05  IONOSPHERIC CORR
BDSA   6.5193D-09  2.2352D-08 -2.3842D-07  3.5763D-07 O 06  IONOSPHERIC CORR
BDSA   6.5193D-09  2.2352D-08 -2.3842D-07  3.5763D-07 W 07  IONOSPHERIC CORR
BDSA   6.5193D-09  3.7253D-08 -2.9802D-07  4.7684D-07 G 08  IONOSPHERIC CORR
BDSA   6.5193D-09  2.2352D-08 -2.3842D-07  4.1723D-07 S 09  IONOSPHERIC CORR
BDSA   6.5193D-09  2.2352D-08 -2.3842D-07  3.5763D-07 W 10  IONOSPHERIC CORR
BDSA   6.5193D-09  2.9802D-08 -2.9802D-07  4.1723D-07 I 11  IONOSPHERIC CORR
BDSA   6.5193D-09  2.9802D-08 -2.3842D-07  4.1723D-07 T 12  IONOSPHERIC CORR
BDSA   6.5193D-09  2.9802D-08 -2.3842D-07  4.1723D-07 K 13  IONOSPHERIC CORR
BDSA   6.5193D-09  2.9802D-08 -2.3842D-07  4.1723D-07 K 14  IONOSPHERIC CORR
BDSA   6.5193D-09  2.2352D-08 -2.3842D-07  3.5763D-07 O 16  IONOSPHERIC CORR
BDSA   6.5193D-09  2.2352D-08 -2.3842D-07  3.5763D-07 W 19  IONOSPHERIC CORR
BDSA   6.5193D-09  2.2352D-08 -2.3842D-07  3.5763D-07 U 20  IONOSPHERIC CORR
BDSA   6.5193D-09  2.2352D-08 -2.3842D-07  3.5763D-07 W 21  IONOSPHERIC CORR
BDSA   6.5193D-09  2.2352D-08 -2.3842D-07  3.5763D-07 W 22  IONOSPHERIC CORR
BDSA   6.5193D-09  2.2352D-08 -2.3842D-07  3.5763D-07 Q 23  IONOSPHERIC CORR
BDSA   6.5193D-09  4.4703D-08 -3.5763D-07  5.3644D-07 E 24  IONOSPHERIC CORR
BDSA   6.5193D-09  3.7253D-08 -2.9802D-07  4.7684D-07 G 25  IONOSPHERIC CORR
BDSA   6.5193D-09  2.2352D-08 -2.3842D-07  3.5763D-07 W 26  IONOSPHERIC CORR
BDSA   6.5193D-09  2.2352D-08 -2.3842D-07  3.5763D-07 O 27  IONOSPHERIC CORR
BDSA   6.5193D-09  2.2352D-08 -2.3842D-07  4.1723D-07 M 28  IONOSPHERIC CORR
BDSA   6.5193D-09  2.2352D-08 -2.3842D-07  3.5763D-07 X 29  IONOSPHERIC CORR
BDSA   6.5193D-09  2.2352D-08 -2.3842D-07  3.5763D-07 W 30  IONOSPHERIC CORR
BDSB   1.1878D+05  1.3107D+05 -3.9322D+05  3.9322D+05 W 05  IONOSPHERIC CORR
BDSB   1.1878D+05  1.3107D+05 -3.9322D+05  3.9322D+05 O 06  IONOSPHERIC CORR
BDSB   1.1878D+05  1.3107D+05 -3.9322D+05  3.9322D+05 W 07  IONOSPHERIC CORR
BDSB   1.1878D+05  6.5536D+04  0.0000D+00  6.5536D+04 G 08  IONOSPHERIC CORR
BDSB   1.1878D+05  1.1469D+05 -2.6214D+05  2.6214D+05 S 09  IONOSPHERIC CORR
BDSB   1.1878D+05  1.3107D+05 -3.9322D+05  3.9322D+05 W 10  IONOSPHERIC CORR
BDSB   1.1674D+05  1.3107D+05 -3.2768D+05  3.2768D+05 I 11  IONOSPHERIC CORR
BDSB   1.1674D+05  1.6384D+05 -5.2429D+05  5.2429D+05 T 12  IONOSPHERIC CORR
BDSB   1.1674D+05  1.6384D+05 -5.2429D+05  5.2429D+05 K 13  IONOSPHERIC CORR
BDSB   1.1674D+05  1.6384D+05 -5.2429D+05  5.2429D+05 K 14  IONOSPHERIC CORR
BDSB   1.1878D+05  1.3107D+05 -3.9322D+05  3.9322D+05 O 16  IONOSPHERIC CORR
BDSB   1.1878D+05  1.3107D+05 -3.9322D+05  3.9322D+05 W 19  IONOSPHERIC CORR
BDSB   1.1878D+05  1.6384D+05 -5.2429D+05  4.5875D+05 U 20  IONOSPHERIC CORR
BDSB   1.1878D+05  1.3107D+05 -3.9322D+05  3.9322D+05 W 21  IONOSPHERIC CORR
BDSB   1.1878D+05  1.3107D+05 -3.9322D+05  3.9322D+05 W 22  IONOSPHERIC CORR
BDSB   1.2083D+05  8.1920D+04 -1.3107D+05  1.9661D+05 Q 23  IONOSPHERIC CORR
BDSB   1.1878D+05  6.5536D+04 -6.5536D+04  1.9661D+05 E 24  IONOSPHERIC CORR
BDSB   1.1878D+05  6.5536D+04  0.0000D+00  6.5536D+04 G 25  IONOSPHERIC CORR
BDSB   1.1878D+05  1.3107D+05 -3.9322D+05  3.9322D+05 W 26  IONOSPHERIC CORR
BDSB   1.1878D+05  1.3107D+05 -3.9322D+05  3.9322D+05 O 27  IONOSPHERIC CORR
BDSB   1.1674D+05  1.4746D+05 -5.2429D+05  4.5875D+05 M 28  IONOSPHERIC CORR
BDSB   1.1878D+05  1.3107D+05 -3.9322D+05  3.9322D+05 X 29  IONOSPHERIC CORR
BDSB   1.1878D+05  1.3107D+05 -3.9322D+05  3.9322D+05 W 30  IONOSPHERIC CORR
GPUT  0.0000000000D+00-8.881784197D-16 319488 2167          TIME SYSTEM CORR
GLUT  1.0244548321D-08 0.000000000D+00      0    0          TIME SYSTEM CORR
GAUT  1.8626451492D-09-8.881784197D-16      0 2167          TIME SYSTEM CORR
GPGA  1.2805685401D-09-1.110223025D-14  86400 2167          TIME SYSTEM CORR
BDUT -9.3132257462D-10 2.042810365D-14  86345  811          TIME SYSTEM CORR
    18    18  1929     7                                    LEAP SECONDS
                                                            END OF HEADER
E01 2021 07 18 21 10 00-1.152916753199D-03-8.085976332950D-12 0.000000000000D+00
     1.270000000000D+02 1.355000000000D+02 2.731185193397D-09-3.010983460598D+00
     6.342306733131D-06 1.734870020300D-04 7.381662726402D-06 5.440611782074D+03
     7.620000000000D+04-1.117587089539D-08-4.340959621592D-01-4.470348358154D-08
     9.775171558218D-01 1.940937500000D+02-1.617245693277D+00-5.524515832545D-09
    -3.214419607765D-12 2.580000000000D+02 2.167000000000D+03 0.000000000000D+00
     3.120000000000D+00 0.000000000000D+00 2.328306436539D-10 0.000000000000D+00
     7.690000000000D+04
E01 2021 07 18 21 10 00-1.152917102445D-03-8.085976332950D-12 0.000000000000D+00
     1.270000000000D+02 1.355000000000D+02 2.731185193397D-09-3.010983460598D+00
     6.342306733131D-06 1.734870020300D-04 7.381662726402D-06 5.440611782074D+03
     7.620000000000D+04-1.117587089539D-08-4.340959621592D-01-4.470348358154D-08
     9.775171558218D-01 1.940937500000D+02-1.617245693277D+00-5.524515832545D-09
    -3.214419607765D-12 5.170000000000D+02 2.167000000000D+03 0.000000000000D+00
     3.120000000000D+00 0.000000000000D+00 2.328306436539D-10 4.656612873077D-10
     7.686400000000D+04
E02 2021 07 18 23 40 00 2.338569611311D-04 2.700062395888D-12 0.000000000000D+00
     1.400000000000D+01 1.720312500000D+02 2.855476084898D-09 1.678592697724D-01
     7.793307304382D-06 2.178583526984D-04 6.735324859619D-06 5.440615077972D+03
     8.520000000000D+04 8.381903171539D-08-4.341724991073D-01-2.235174179077D-08
     9.775254242348D-01 2.026875000000D+02-5.441535962843D-01-5.656307036463D-09
     1.821504444400D-11 2.580000000000D+02 2.167000000000D+03 0.000000000000D+00
     3.120000000000D+00 0.000000000000D+00-1.164153218269D-09 0.000000000000D+00
     8.630000000000D+04
E02 2021 07 18 23 40 00 2.338555641472D-04 2.685851541173D-12 0.000000000000D+00
     1.400000000000D+01 1.720312500000D+02 2.855476084898D-09 1.678592697724D-01
     7.793307304382D-06 2.178583526984D-04 6.735324859619D-06 5.440615077972D+03
     8.520000000000D+04 8.381903171539D-08-4.341724991073D-01-2.235174179077D-08
     9.775254242348D-01 2.026875000000D+02-5.441535962843D-01-5.656307036463D-09
     1.821504444400D-11 5.130000000000D+02 2.167000000000D+03 0.000000000000D+00
     3.120000000000D+00 0.000000000000D+00-1.164153218269D-09-1.862645149231D-09
     8.630500000000D+04
E03 2021 07 18 23 20 00-4.541375674307D-04-4.092726157978D-12 0.000000000000D+00
     1.200000000000D+01-2.865625000000D+01 3.830159541519D-09 1.728651257195D+00
    -1.220032572746D-06 3.175657475367D-04 6.349757313728D-06 5.440616617203D+03
     8.400000000000D+04-3.725290298462D-09-2.532921325677D+00 1.154839992523D-07
     9.551514015240D-01 2.009687500000D+02-1.720105031679D-01-5.860958418158D-09
    -1.821504444400D-11 2.580000000000D+02 2.167000000000D+03 0.000000000000D+00
     3.120000000000D+00 0.000000000000D+00 3.026798367500D-09 0.000000000000D+00
     8.470000000000D+04
E03 2021 07 18 23 20 00-4.541377420537D-04-4.092726157978D-12 0.000000000000D+00
     1.200000000000D+01-2.865625000000D+01 3.830159541519D-09 1.728651257195D+00
    -1.220032572746D-06 3.175657475367D-04 6.349757313728D-06 5.440616617203D+03
     8.400000000000D+04-3.725290298462D-09-2.532921325677D+00 1.154839992523D-07
     9.551514015240D-01 2.009687500000D+02-1.720105031679D-01-5.860958418158D-09
    -1.821504444400D-11 5.170000000000D+02 2.167000000000D+03 0.000000000000D+00
     3.120000000000D+00 0.000000000000D+00 3.026798367500D-09 3.492459654808D-09
     8.466400000000D+04
E04 2021 07 18 21 50 00-8.161825826392D-04-8.029132914089D-12 0.000000000000D+00
     3.000000000000D+00-3.203125000000D+01 3.695511075727D-09-1.798332346481D+00
    -1.583248376846D-06 2.533732913435D-04 6.085261702538D-06 5.440618618011D+03
     7.860000000000D+04-9.313225746155D-08-2.532807820789D+00-8.940696716309D-08
     9.551946907329D-01 2.046875000000D+02-1.231292922670D+00-5.838100323169D-09
    -1.407201472733D-10 2.580000000000D+02 2.167000000000D+03 0.000000000000D+00
     3.120000000000D+00 0.000000000000D+00-3.259629011154D-09 0.000000000000D+00
     7.930000000000D+04
E04 2021 07 18 21 50 00-8.161834557541D-04-8.043343768804D-12 0.000000000000D+00
     3.000000000000D+00-3.203125000000D+01 3.695511075727D-09-1.798332346481D+00
    -1.583248376846D-06 2.533732913435D-04 6.085261702538D-06 5.440618618011D+03
     7.860000000000D+04-9.313225746155D-08-2.532807820789D+00-8.940696716309D-08
     9.551946907329D-01 2.046875000000D+02-1.231292922670D+00-5.838100323169D-09
    -1.407201472733D-10 5.170000000000D+02 2.167000000000D+03 0.000000000000D+00
     3.120000000000D+00 0.000000000000D+00-3.259629011154D-09-3.725290298462D-09
     7.926400000000D+04
E05 2021 07 18 23 40 00-2.641327446327D-04 3.026912054338D-12 0.000000000000D+00
     1.400000000000D+01-3.093750000000D+01 3.756585048274D-09-2.843787842150D+00
    -1.359730958939D-06 1.827761298046D-04 6.295740604401D-06 5.440616815567D+03
     8.520000000000D+04-5.215406417847D-08-2.532936259145D+00 7.450580596924D-09
     9.551652597470D-01 2.029687500000D+02-9.424931678349D-01-5.765954460862D-09
    -1.214336296267D-11 2.580000000000D+02 2.167000000000D+03 0.000000000000D+00
     3.120000000000D+00 0.000000000000D+00 3.492459654808D-09 0.000000000000D+00
     8.590000000000D+04
